OBJECT_NAME,OBJECT_ID,EPOCH,MEAN_MOTION,ECCENTRICITY,INCLINATION,RA_OF_ASC_NODE,ARG_OF_PERICENTER,MEAN_ANOMALY,EPHEMERIS_TYPE,CLASSIFICATION_TYPE,NORAD_CAT_ID,ELEMENT_SET_NO,REV_AT_EPOCH,BSTAR,MEAN_MOTION_DOT,MEAN_MOTION_DDOT
PERSEUS-M1,2014-033AF,2026-06-25T09:34:27.202080,14.95658547,.00098061,97.9647,120.6655,270.4226,89.5870,0,U,40039,999,65186,.18638729E-3,.2013E-4,0
POLYITAN-1,2014-033AJ,2026-06-25T12:51:22.364064,15.33533321,.00088713,98.0944,203.5873,118.4469,241.7666,0,U,40042,999,65487,.74522053E-3,.24146E-3,0
TIGRISAT,2014-033AK,2026-06-24T22:20:52.661184,14.85187769,.00502335,97.7840,325.7656,50.4069,310.1565,0,U,40043,999,64677,.2039231E-3,.1731E-4,0
AEROCUBE 6A,2014-033AM,2026-06-25T10:32:25.475136,14.98172989,.00382858,97.7234,343.3017,349.4286,10.6127,0,U,40045,999,64785,.41986088E-3,.4995E-4,0
AEROCUBE 6B,2014-033AN,2026-06-25T10:24:12.690144,14.99635963,.00378054,97.7233,343.1047,340.5083,19.4692,0,U,40046,999,64799,.42013931E-3,.5192E-4,0
CANX-4,2014-034C,2026-06-25T12:40:29.750304,14.81278559,.00125242,98.3113,52.1470,350.6546,9.4430,0,U,40055,999,64576,.12206466E-3,.895E-5,0
CANX-5,2014-034D,2026-06-25T09:23:33.522144,14.81295407,.00125322,98.3115,52.0493,351.3402,8.7591,0,U,40056,999,63655,.12007518E-3,.88E-5,0
UKUBE-1,2014-037F,2026-06-25T13:32:08.853504,15.13673533,.00029938,98.4236,180.7162,120.0647,240.0878,0,U,40074,999,64982,.59184894E-3,.10578E-3,0
BRITE-PL2 (HEWELIUSZ),2014-049B,2026-06-25T12:58:55.428384,14.94624267,.00154244,97.9105,288.6055,83.0154,277.2819,0,U,40119,999,64269,.1817953E-3,.1913E-4,0
AEROCUBE 5C,2015-058B,2026-06-25T11:38:49.570944,14.91484743,.01311514,64.7654,236.7748,60.0454,301.3604,0,U,40965,999,36689,.17759232E-3,.1921E-4,0
AEROCUBE 7,2015-058C,2026-06-25T12:35:39.596640,14.95769117,.01208884,64.7609,218.6998,58.3877,302.8967,0,U,40966,999,36720,.27909169E-3,.3433E-4,0
FOX-1A (AO-85),2015-058D,2026-06-25T12:51:14.205312,14.91002473,.01309415,64.7749,253.0389,53.3453,307.9612,0,U,40967,999,11481,.21214642E-3,.2298E-4,0
SINOD-D 1,2015-058E,2026-06-25T12:02:27.972096,14.95949500,.0119604,64.7740,232.8740,49.7938,311.3569,0,U,40968,999,11790,.2655586E-3,.3264E-4,0
SNAP-3 ALICE,2015-058G,2026-06-25T10:31:08.980896,15.62071198,.0025323,64.7505,75.3722,7.0056,353.1440,0,U,40970,999,11817,.18763563E-2,.171201E-2,0
LMRST-SAT,2015-058H,2026-06-25T13:26:33.383904,14.90620296,.01325439,64.7744,249.3168,55.3670,305.9855,0,U,40971,999,11480,.17381026E-3,.1837E-4,0
SNAP-3 EDDIE,2015-058J,2026-06-25T00:54:28.247616,15.63150797,.00257396,64.7417,67.4251,10.8094,349.3601,0,U,40972,999,12025,.15597589E-2,.148087E-2,0
PROPCUBE 3,2015-058K,2026-06-25T12:11:48.492096,14.94295429,.01244819,64.7673,226.5370,56.6244,304.6708,0,U,40973,999,11604,.24555764E-3,.2901E-4,0
BISONSAT,2015-058L,2026-06-25T06:39:45.544608,15.16377580,.00800288,64.7573,147.4833,43.9823,316.7632,0,U,40974,999,11684,.83933924E-3,.17605E-3,0
SNAP-3 JIMI,2015-058M,2026-06-25T09:02:53.659680,15.02366223,.01066111,64.7632,193.8587,52.0629,309.0065,0,U,40975,999,11545,.42350662E-3,.6176E-4,0
PROPCUBE 1 (FLORA),2015-058N,2026-06-25T12:32:43.353600,14.89254235,.01311896,64.7738,269.4016,57.6889,303.6848,0,U,40976,999,11750,.1890417E-3,.1931E-4,0
SINOD-D 3,2015-058P,2026-06-25T12:59:21.060672,14.94059202,.01197427,64.7721,249.7315,54.8095,306.4162,0,U,40977,999,11600,.26507349E-3,.309E-4,0
HORYU-4,2016-012D,2026-06-24T22:09:51.695136,16.04340254,.00084519,30.9835,21.9003,319.1648,40.8382,0,U,41340,999,57205,.12684942E-2,.887715E-2,.38475701E-3
RAVAN,2016-067B,2026-06-25T05:11:09.417408,15.55412182,.0003047,97.9880,66.7191,3.7244,356.4031,0,U,41849,999,52894,.91273489E-3,.62417E-3,0
CELTEE 1,2016-067C,2026-06-25T13:39:37.057824,15.19757723,.00014231,98.0670,43.7080,129.0857,231.0503,0,U,41850,999,52715,.29894118E-3,.6317E-4,0
OPTICUBE 04,2016-067D,2026-06-25T13:30:53.366688,15.09692566,.00170274,98.0695,29.2835,89.4863,270.8316,0,U,41851,999,52643,.13067487E-3,.204E-4,0
AEROCUBE 8D,2016-067E,2026-06-25T13:22:37.021152,15.24505591,.00050009,98.0681,47.3655,103.2340,256.9453,0,U,41852,999,52734,.36294269E-3,.8849E-4,0
AEROCUBE 8C,2016-067F,2026-06-25T13:56:37.290624,15.24756224,.00061306,98.0550,44.6077,46.0158,314.1583,0,U,41853,999,52734,.39225057E-3,.9645E-4,0
CORVUS BC2,2017-042X,2026-06-25T10:22:08.047776,15.06345732,.0014762,97.4072,337.4619,85.1086,275.1826,0,U,42846,999,48830,.22071347E-3,.3195E-4,0
CORVUS BC1,2017-042Y,2026-06-25T10:13:03.265536,15.06508441,.00132561,97.4098,338.2753,64.2812,295.9783,0,U,42847,999,48833,.19494312E-3,.2826E-4,0
MAKERSAT 0,2017-073D,2026-06-24T10:17:55.746816,15.32301022,.01048473,97.4622,58.0052,246.7219,112.2959,0,U,43016,999,46757,.42577588E-3,.15733E-3,0
